0 IRIDIUM 122
1 42957U 17061C   20312.84562949  .00000084  00000-0  22963-4 0  9995
2 42957  86.3980 160.8145 0001416  94.3587 265.7771 14.34218194161332
0 IRIDIUM 129
1 42958U 17061D   20312.66168524  .00000085  00000-0  23269-4 0  9998
2 42958  86.3982 160.9360 0001564  88.5962 271.5413 14.34219309161327
0 IRIDIUM 119
1 42959U 17061E   20312.83928428 +.00000063 +00000-0 +15586-4 0  9994
2 42959 086.3981 160.8474 0001660 085.3140 274.8245 14.34217520161368
0 IRIDIUM 107
1 42960U 17061F   20312.64900390 +.00000076 +00000-0 +20064-4 0  9994
2 42960 086.3984 160.9355 0001871 090.4791 269.6619 14.34217933161348
0 IRIDIUM 132
1 42961U 17061G   20312.30649679  .00000076  00000-0  20252-4 0  9997
2 42961  86.3984 161.0695 0001896  97.2047 262.9364 14.34220588161291
0 IRIDIUM 136
1 42962U 17061H   20312.82658970 +.00000082 +00000-0 +22306-4 0  9998
2 42962 086.3984 160.8523 0001684 080.8283 279.3103 14.34217537161387
0 IRIDIUM 139
1 42963U 17061J   20312.83293811 +.00000075 +00000-0 +19803-4 0  9999
2 42963 086.3985 160.8787 0001785 091.4441 268.6959 14.34218680161398
0 IRIDIUM 125
1 42964U 17061K   20312.82025543 +.00000081 +00000-0 +22019-4 0  9994
2 42964 086.3986 160.9079 0001864 092.1788 267.9621 14.34217881161407
0 SENTINEL 5P
1 42969U 17064A   20312.82913799 -.00000004  00000-0  18939-4 0  9993
2 42969  98.7129 249.9465 0001028  85.6273 274.5020 14.19544679159093
0 KESTREL EYE 2M
1 42982U 98067NE  20312.79181581 +.00025728 +00000-0 +17464-3 0  9992
2 42982 051.6335 267.4031 0001001 330.6203 029.4740 15.74780141173625
0 SIMPL
1 42983U 98067NF  20312.47872706 +.00007316 +00000-0 +85058-4 0  9992
2 42983 051.6383 303.9115 0002651 228.9436 131.1329 15.62909317172647
0 COSMOS 2523
1 42986U 17037E   20312.83654918 +.00000274 +00000-0 +35303-4 0  9990
2 42986 097.7407 011.9549 0078474 187.6441 172.3554 14.86738274164126
0 SKYSAT C11
1 42987U 17068A   20312.82403766 +.00002463 +00000-0 +66658-4 0  9996
2 42987 097.2438 065.1307 0008278 250.9830 109.0519 15.38628726168120
0 SKYSAT C10
1 42988U 17068B   20312.48670913 +.00002432 +00000-0 +65806-4 0  9999
2 42988 097.2477 064.6561 0001980 318.4254 041.6841 15.38659858168098
0 SKYSAT C9
1 42989U 17068C   20312.79954964 +.00002517 +00000-0 +68033-4 0  9994
2 42989 097.2435 064.5040 0002739 110.7565 249.3974 15.38661188168335
0 SKYSAT C8
1 42990U 17068D   20312.79374965 +.00002489 +00000-0 +67255-4 0  9996
2 42990 097.2477 065.3354 0000296 243.5950 116.5265 15.38684902168167
0 SKYSAT C7
1 42991U 17068E   20312.78109801  .00002496  00000-0  67463-4 0  9990
2 42991  97.2484  65.3333 0001413  92.0190 268.1218 15.38677126168160
0 SKYSAT C6
1 42992U 17068F   20312.77087317 +.00002519 +00000-0 +68062-4 0  9999
2 42992 097.2500 065.5599 0002397 138.5023 221.6405 15.38674852168175
0 FLOCK 3M 1
1 42995U 17068J   20312.74512527 +.00003236 +00000-0 +14398-3 0  9994
2 42995 097.4035 057.0983 0015073 331.5523 028.4889 15.22104931167527
0 FLOCK 3M 3
1 42996U 17068K   20312.80055720 +.00003080 +00000-0 +13631-3 0  9995
2 42996 097.3977 056.7433 0014240 331.7025 028.3436 15.22330763167556
0 FLOCK 3M 4
1 42997U 17068L   20312.48850851 +.00001186 +00000-0 +55255-4 0  9992
2 42997 097.4288 059.6740 0014488 335.8433 024.2122 15.21786234167484
0 FLOCK 3M 2
1 42998U 17068M   20312.84591890 +.00002316 +00000-0 +10495-3 0  9990
2 42998 097.4100 058.4736 0012933 333.9214 026.1369 15.21796591167547
0 MOHAMMED VI-A
1 43005U 17070A   20312.77859158  .00000105  00000-0  22055-4 0  9999
2 43005  97.9471  22.5134 0001393  84.7173 275.4200 14.77079447161743
0 FENGYUN 3D
1 43010U 17072A   20312.78376313 +.00000003 +00000-0 +22264-4 0  9994
2 43010 098.7628 250.5519 0002290 048.1412 311.9968 14.19752382154537
0 HEAD-1
1 43011U 17072B   20312.88062063 -.00000108 +00000-0 -26260-4 0  9998
2 43011 098.7749 263.1668 0010186 337.1074 022.9657 14.26542931155298
0 NOAA 20
1 43013U 17073A   20312.79122283 +.00000029 +00000-0 +34468-4 0  9991
2 43013 098.7299 248.5791 0000873 073.2348 286.8924 14.19540883153997
0 BUCCANEER RMM
1 43014U 17073B   20312.78677468 +.00002789 +00000-0 +22635-3 0  9998
2 43014 097.7074 218.2552 0247005 304.6752 053.1404 14.79639572160331
0 MIRATA
1 43015U 17073C   20312.82410674 +.00002141 +00000-0 +17051-3 0  9996
2 43015 097.7108 219.5488 0251098 301.0148 056.6622 14.79976700160426
0 MAKERSAT 0
1 43016U 17073D   20312.69554710 +.00001389 +00000-0 +11300-3 0  9996
2 43016 097.7152 219.5714 0254154 302.8537 054.8439 14.79452200160380
0 AO-91
1 43017U 17073E   20312.74817933  .00001111  00000-0  92038-4 0  9993
2 43017  97.7152 219.4020 0255253 303.6110  54.0976 14.79125634160349
0 EAGLESAT 1
1 43018U 17073F   20312.31315145 +.00001924 +00000-0 +15300-3 0  9993
2 43018 097.7144 219.5572 0252743 302.7378 054.9699 14.79920314160182
0 ECAMSAT
1 43019U 98067NG  20312.64285211 +.00016560 +00000-0 +14482-3 0  9994
2 43019 051.6405 283.3478 0002183 209.8026 150.2847 15.69066078255250
0 DELLINGR (RBLE)
1 43021U 98067NJ  20312.83970237 +.00033058 +00000-0 +21266-3 0  9996
2 43021 051.6339 264.7991 0001254 121.3008 238.8115 15.75873871169437
0 JILIN-01-04
1 43022U 17074A   20312.84742912 +.00000215 +00000-0 +17100-4 0  9996
2 43022 097.5272 044.0916 0009225 136.0820 341.1147 15.10016587163349
0 JILIN-01-05
1 43023U 17074B   20312.86953376 +.00000864 +00000-0 +56989-4 0  9995
2 43023 097.5282 044.2422 0009362 146.0159 333.5695 15.10023603163343
0 JILIN-01-06
1 43024U 17074C   20312.88985770 +.00000652 +00000-0 +43932-4 0  9990
2 43024 097.5271 044.1978 0012090 150.9691 319.4404 15.10013429163340
0 YAOGAN-30 D
1 43028U 17075A   20312.75826769 +.00000269 +00000-0 +30247-4 0  9992
2 43028 034.9985 348.2416 0002307 273.1764 086.8666 14.89808073160990
0 YAOGAN-30 E
1 43029U 17075B   20312.80387262  .00000233  00000-0  26579-4 0  9993
2 43029  34.9981 347.6128 0004400 190.1972 169.8647 14.89799452160996
0 YAOGAN-30 F
1 43030U 17075C   20312.78047542  .00000245  00000-0  27805-4 0  9992
2 43030  34.9988 347.5182 0004010   0.1112 359.9590 14.89811099160976
0 COSMOS 2524
1 43032U 17076A   20312.91656864 -.00000041 +00000-0 +24846-4 0  9990
2 43032 067.1447 133.2516 0009922 270.1076 089.8875 13.97057085149665
0 LKW-1
1 43034U 17077A   20312.73567810  .00000981  00000-0  44044-4 0  9999
2 43034  97.3632  26.7908 0010728 104.8324  11.8798 15.23466914162989
0 LEMUR 2 ROCKETJONAH
1 43041U 17071E   20312.68505201  .00016273  00000-0  29259-3 0  9992
2 43041  51.6357  64.2836 0000518 128.4857 231.6178 15.49993099167054
0 AEROCUBE 7B
1 43042U 17071F   20312.78550296 +.00008158 +00000-0 +17991-3 0  9991
2 43042 051.6371 082.7020 0004104 207.3214 152.7557 15.44819164164528
0 AEROCUBE 7C
1 43043U 17071G   20312.79133117  .00007890  00000-0  17445-3 0  9998
2 43043  51.6370  82.7562 0004329 211.8609 148.2116 15.44790516164492
0 CHEFSAT
1 43044U 17071H   20312.73524119 +.00016169 +00000-0 +28097-3 0  9993
2 43044 051.6372 062.4690 0003695 228.9026 131.1644 15.50965009164764
0 LEMUR 2 YONGLIN
1 43045U 17071J   20312.72235650  .00018557  00000-0  32222-3 0  9990
2 43045  51.6369  59.4005 0003420 220.6727 139.4007 15.50877740164847
0 LEMUR 2 KEVIN
1 43046U 17071K   20312.70264265 +.00011754 +00000-0 +22262-3 0  9998
2 43046 051.6376 067.4943 0003113 210.0420 150.0390 15.48811566164742
0 LEMUR 2 BRIANDAVIE
1 43047U 17071L   20312.68817940 +.00013549 +00000-0 +24969-3 0  9990
2 43047 051.6359 067.2558 0002351 255.0842 104.9886 15.49453311164732
0 LEMUR 2 ROMACOSTE
1 43048U 17071M   20312.72974782  .00014352  00000-0  25816-3 0  9999
2 43048  51.6364  63.8982 0002401 256.1198 103.9524 15.50090523164781
0 ASGARDIA 1
1 43049U 17071N   20312.78354134  .00007455  00000-0  16550-3 0  9990
2 43049  51.6384  82.0458 0002027 225.2984 134.7837 15.44761929164494
0 ISARA
1 43050U 17071P   20312.69646503  .00013675  00000-0  25086-3 0  9991
2 43050  51.6355  66.5506 0001878 241.9147 118.1652 15.49574334164694
0 LEMUR 2 MCCULLAGH
1 43051U 17071Q   20312.73312998  .00010399  00000-0  19065-3 0  9995
2 43051  51.6395  63.9881 0000940  40.4480 319.6579 15.49892201164734
0 FAUNA
1 43052U 17071R   20312.72392450 +.00007478 +00000-0 +16294-3 0  9991
2 43052 051.6374 080.1620 0001975 222.7268 137.3565 15.45313876164510
0 LEMUR 2 DUNLOP
1 43053U 17071S   20312.70778242 +.00012824 +00000-0 +24254-3 0  9993
2 43053 051.6354 069.5876 0000725 026.8567 333.2459 15.48760730164663
0 LEMUR 2 LIU-POU-CHUN
1 43054U 17071T   20312.75020162  .00013302  00000-0  24657-3 0  9999
2 43054  51.6365  65.4853 0000418 156.7173 203.3835 15.49302470164727
0 GCOM-C
1 43065U 17082A   20312.78503796  .00000025  00000-0  27970-4 0  9995
2 43065  98.5769  22.9826 0000852 106.9131 253.2143 14.27315490149885
0 IRIDIUM 135
1 43070U 17083A   20312.65484437  .00000059  00000-0  13993-4 0  9995
2 43070  86.3942  97.7093 0002428  92.0270 268.1203 14.34216143150679
0 IRIDIUM 138
1 43071U 17083B   20312.68020348 +.00000067 +00000-0 +16913-4 0  9990
2 43071 086.3932 097.5805 0001815 093.6780 266.4624 14.34215829150667
0 IRIDIUM 116
1 43072U 17083C   20312.64849004 +.00000081 +00000-0 +21935-4 0  9991
2 43072 086.3942 097.7220 0002123 084.2991 275.8447 14.34215977150699
0 IRIDIUM 130
1 43073U 17083D   20312.68654330 +.00000104 +00000-0 +30000-4 0  9991
2 43073 086.3951 097.7804 0001903 090.2748 269.8666 14.34215814150641
0 IRIDIUM 151
1 43074U 17083E   20312.66118160  .00000037  00000-0  60199-5 0  9994
2 43074  86.3944  97.7274 0002068  81.3599 278.7831 14.34214931150667
0 IRIDIUM 134
1 43075U 17083F   20312.76900018 +.00000098 +00000-0 +27946-4 0  9996
2 43075 086.3945 097.6614 0002107 101.2858 258.8575 14.34216155150642
0 IRIDIUM 137
1 43076U 17083G   20312.64214867  .00000119  00000-0  35569-4 0  9998
2 43076  86.3946  97.7699 0002054  81.3530 278.7898 14.34216109150697
0 IRIDIUM 141
1 43077U 17083H   20312.77534886 +.00000125 +00000-0 +37566-4 0  9995
2 43077 086.3941 097.6572 0001801 087.0510 273.0892 14.34216639150715
0 IRIDIUM 153
1 43078U 17083J   20312.79730604 +.00000106 +00000-0 +30743-4 0  9993
2 43078 086.3985 066.0499 0001128 098.7791 261.3533 14.34215744151825
